<?xml version="1.0" encoding="UTF-8"?>
<ndm xmlns:xsi="http://www.w3.org/2001/XMLSchema-instance" xsi:noNamespaceSchemaLocation="https://sanaregistry.org/r/ndmxml_unqualified/ndmxml-2.0.0-master-2.0.xsd">
<omm id="CCSDS_OMM_VERS" version="2.0">
<header><CREATION_DATE/><ORIGINATOR/></header><body><segment><metadata><OBJECT_NAME>ORBCOMM FM24</OBJECT_NAME><OBJECT_ID>1998-053D</OBJECT_ID><CENTER_NAME>EARTH</CENTER_NAME><REF_FRAME>TEME</REF_FRAME><TIME_SYSTEM>UTC</TIME_SYSTEM><MEAN_ELEMENT_THEORY>SGP4</MEAN_ELEMENT_THEORY></metadata><data><meanElements><EPOCH>2024-07-25T11:06:01.012608</EPOCH><MEAN_MOTION>14.35997974</MEAN_MOTION><ECCENTRICITY>.0000471</ECCENTRICITY><INCLINATION>45.0092</INCLINATION><RA_OF_ASC_NODE>16.0058</RA_OF_ASC_NODE><ARG_OF_PERICENTER>95.3012</ARG_OF_PERICENTER><MEAN_ANOMALY>264.7890</MEAN_ANOMALY></meanElements><tleParameters><EPHEMERIS_TYPE>0</EPHEMERIS_TYPE><CLASSIFICATION_TYPE>U</CLASSIFICATION_TYPE><NORAD_CAT_ID>25478</NORAD_CAT_ID><ELEMENT_SET_NO>999</ELEMENT_SET_NO><REV_AT_EPOCH>35072</REV_AT_EPOCH><BSTAR>.86662E-3</BSTAR><MEAN_MOTION_DOT>.24E-4</MEAN_MOTION_DOT><MEAN_MOTION_DDOT>0</MEAN_MOTION_DDOT></tleParameters></data></segment></body></omm>
<omm id="CCSDS_OMM_VERS" version="2.0">
<header><CREATION_DATE/><ORIGINATOR/></header><body><segment><metadata><OBJECT_NAME>ORBCOMM FM25</OBJECT_NAME><OBJECT_ID>1998-053E</OBJECT_ID><CENTER_NAME>EARTH</CENTER_NAME><REF_FRAME>TEME</REF_FRAME><TIME_SYSTEM>UTC</TIME_SYSTEM><MEAN_ELEMENT_THEORY>SGP4</MEAN_ELEMENT_THEORY></metadata><data><meanElements><EPOCH>2024-07-24T20:57:30.538368</EPOCH><MEAN_MOTION>14.35982710</MEAN_MOTION><ECCENTRICITY>.000291</ECCENTRICITY><INCLINATION>45.0085</INCLINATION><RA_OF_ASC_NODE>17.0401</RA_OF_ASC_NODE><ARG_OF_PERICENTER>59.7901</ARG_OF_PERICENTER><MEAN_ANOMALY>300.3234</MEAN_ANOMALY></meanElements><tleParameters><EPHEMERIS_TYPE>0</EPHEMERIS_TYPE><CLASSIFICATION_TYPE>U</CLASSIFICATION_TYPE><NORAD_CAT_ID>25479</NORAD_CAT_ID><ELEMENT_SET_NO>999</ELEMENT_SET_NO><REV_AT_EPOCH>35065</REV_AT_EPOCH><BSTAR>.10642E-2</BSTAR><MEAN_MOTION_DOT>.2979E-4</MEAN_MOTION_DOT><MEAN_MOTION_DDOT>0</MEAN_MOTION_DDOT></tleParameters></data></segment></body></omm>
<omm id="CCSDS_OMM_VERS" version="2.0">
<header><CREATION_DATE/><ORIGINATOR/></header><body><segment><metadata><OBJECT_NAME>ORBCOMM FM26</OBJECT_NAME><OBJECT_ID>1998-053F</OBJECT_ID><CENTER_NAME>EARTH</CENTER_NAME><REF_FRAME>TEME</REF_FRAME><TIME_SYSTEM>UTC</TIME_SYSTEM><MEAN_ELEMENT_THEORY>SGP4</MEAN_ELEMENT_THEORY></metadata><data><meanElements><EPOCH>2024-07-24T21:50:42.573408</EPOCH><MEAN_MOTION>14.35374980</MEAN_MOTION><ECCENTRICITY>.0005207</ECCENTRICITY><INCLINATION>45.0080</INCLINATION><RA_OF_ASC_NODE>11.3155</RA_OF_ASC_NODE><ARG_OF_PERICENTER>78.4085</ARG_OF_PERICENTER><MEAN_ANOMALY>281.7347</MEAN_ANOMALY></meanElements><tleParameters><EPHEMERIS_TYPE>0</EPHEMERIS_TYPE><CLASSIFICATION_TYPE>U</CLASSIFICATION_TYPE><NORAD_CAT_ID>25480</NORAD_CAT_ID><ELEMENT_SET_NO>999</ELEMENT_SET_NO><REV_AT_EPOCH>35069</REV_AT_EPOCH><BSTAR>.78614E-3</BSTAR><MEAN_MOTION_DOT>.2136E-4</MEAN_MOTION_DOT><MEAN_MOTION_DDOT>0</MEAN_MOTION_DDOT></tleParameters></data></segment></body></omm>
<omm id="CCSDS_OMM_VERS" version="2.0">
<header><CREATION_DATE/><ORIGINATOR/></header><body><segment><metadata><OBJECT_NAME>ORBCOMM FM27</OBJECT_NAME><OBJECT_ID>1998-053G</OBJECT_ID><CENTER_NAME>EARTH</CENTER_NAME><REF_FRAME>TEME</REF_FRAME><TIME_SYSTEM>UTC</TIME_SYSTEM><MEAN_ELEMENT_THEORY>SGP4</MEAN_ELEMENT_THEORY></metadata><data><meanElements><EPOCH>2024-07-24T20:41:19.127616</EPOCH><MEAN_MOTION>14.35968623</MEAN_MOTION><ECCENTRICITY>.0001406</ECCENTRICITY><INCLINATION>45.0069</INCLINATION><RA_OF_ASC_NODE>17.3541</RA_OF_ASC_NODE><ARG_OF_PERICENTER>186.7812</ARG_OF_PERICENTER><MEAN_ANOMALY>173.3017</MEAN_ANOMALY></meanElements><tleParameters><EPHEMERIS_TYPE>0</EPHEMERIS_TYPE><CLASSIFICATION_TYPE>U</CLASSIFICATION_TYPE><NORAD_CAT_ID>25481</NORAD_CAT_ID><ELEMENT_SET_NO>999</ELEMENT_SET_NO><REV_AT_EPOCH>35062</REV_AT_EPOCH><BSTAR>.97312E-3</BSTAR><MEAN_MOTION_DOT>.2711E-4</MEAN_MOTION_DOT><MEAN_MOTION_DDOT>0</MEAN_MOTION_DDOT></tleParameters></data></segment></body></omm>
<omm id="CCSDS_OMM_VERS" version="2.0">
<header><CREATION_DATE/><ORIGINATOR/></header><body><segment><metadata><OBJECT_NAME>ORBCOMM FM28</OBJECT_NAME><OBJECT_ID>1998-053H</OBJECT_ID><CENTER_NAME>EARTH</CENTER_NAME><REF_FRAME>TEME</REF_FRAME><TIME_SYSTEM>UTC</TIME_SYSTEM><MEAN_ELEMENT_THEORY>SGP4</MEAN_ELEMENT_THEORY></metadata><data><meanElements><EPOCH>2024-07-24T19:49:49.159488</EPOCH><MEAN_MOTION>14.36382842</MEAN_MOTION><ECCENTRICITY>.0002903</ECCENTRICITY><INCLINATION>45.0065</INCLINATION><RA_OF_ASC_NODE>315.7470</RA_OF_ASC_NODE><ARG_OF_PERICENTER>128.2063</ARG_OF_PERICENTER><MEAN_ANOMALY>231.9046</MEAN_ANOMALY></meanElements><tleParameters><EPHEMERIS_TYPE>0</EPHEMERIS_TYPE><CLASSIFICATION_TYPE>U</CLASSIFICATION_TYPE><NORAD_CAT_ID>25482</NORAD_CAT_ID><ELEMENT_SET_NO>999</ELEMENT_SET_NO><REV_AT_EPOCH>35125</REV_AT_EPOCH><BSTAR>.83402E-3</BSTAR><MEAN_MOTION_DOT>.2323E-4</MEAN_MOTION_DOT><MEAN_MOTION_DDOT>0</MEAN_MOTION_DDOT></tleParameters></data></segment></body></omm>
<omm id="CCSDS_OMM_VERS" version="2.0">
<header><CREATION_DATE/><ORIGINATOR/></header><body><segment><metadata><OBJECT_NAME>ORBCOMM FM30</OBJECT_NAME><OBJECT_ID>1999-065A</OBJECT_ID><CENTER_NAME>EARTH</CENTER_NAME><REF_FRAME>TEME</REF_FRAME><TIME_SYSTEM>UTC</TIME_SYSTEM><MEAN_ELEMENT_THEORY>SGP4</MEAN_ELEMENT_THEORY></metadata><data><meanElements><EPOCH>2024-07-25T03:26:31.187328</EPOCH><MEAN_MOTION>14.35503566</MEAN_MOTION><ECCENTRICITY>.0004855</ECCENTRICITY><INCLINATION>45.0303</INCLINATION><RA_OF_ASC_NODE>195.8187</RA_OF_ASC_NODE><ARG_OF_PERICENTER>189.4702</ARG_OF_PERICENTER><MEAN_ANOMALY>170.6055</MEAN_ANOMALY></meanElements><tleParameters><EPHEMERIS_TYPE>0</EPHEMERIS_TYPE><CLASSIFICATION_TYPE>U</CLASSIFICATION_TYPE><NORAD_CAT_ID>25980</NORAD_CAT_ID><ELEMENT_SET_NO>999</ELEMENT_SET_NO><REV_AT_EPOCH>28795</REV_AT_EPOCH><BSTAR>.68999E-3</BSTAR><MEAN_MOTION_DOT>.1862E-4</MEAN_MOTION_DOT><MEAN_MOTION_DDOT>0</MEAN_MOTION_DDOT></tleParameters></data></segment></body></omm>
<omm id="CCSDS_OMM_VERS" version="2.0">
<header><CREATION_DATE/><ORIGINATOR/></header><body><segment><metadata><OBJECT_NAME>ORBCOMM FM31</OBJECT_NAME><OBJECT_ID>1999-065B</OBJECT_ID><CENTER_NAME>EARTH</CENTER_NAME><REF_FRAME>TEME</REF_FRAME><TIME_SYSTEM>UTC</TIME_SYSTEM><MEAN_ELEMENT_THEORY>SGP4</MEAN_ELEMENT_THEORY></metadata><data><meanElements><EPOCH>2024-07-24T09:55:05.014272</EPOCH><MEAN_MOTION>14.35492350</MEAN_MOTION><ECCENTRICITY>.0003239</ECCENTRICITY><INCLINATION>45.0217</INCLINATION><RA_OF_ASC_NODE>192.9056</RA_OF_ASC_NODE><ARG_OF_PERICENTER>230.0520</ARG_OF_PERICENTER><MEAN_ANOMALY>130.0044</MEAN_ANOMALY></meanElements><tleParameters><EPHEMERIS_TYPE>0</EPHEMERIS_TYPE><CLASSIFICATION_TYPE>U</CLASSIFICATION_TYPE><NORAD_CAT_ID>25981</NORAD_CAT_ID><ELEMENT_SET_NO>999</ELEMENT_SET_NO><REV_AT_EPOCH>28687</REV_AT_EPOCH><BSTAR>.70678E-3</BSTAR><MEAN_MOTION_DOT>.191E-4</MEAN_MOTION_DOT><MEAN_MOTION_DDOT>0</MEAN_MOTION_DDOT></tleParameters></data></segment></body></omm>
<omm id="CCSDS_OMM_VERS" version="2.0">
<header><CREATION_DATE/><ORIGINATOR/></header><body><segment><metadata><OBJECT_NAME>ORBCOMM FM32</OBJECT_NAME><OBJECT_ID>1999-065C</OBJECT_ID><CENTER_NAME>EARTH</CENTER_NAME><REF_FRAME>TEME</REF_FRAME><TIME_SYSTEM>UTC</TIME_SYSTEM><MEAN_ELEMENT_THEORY>SGP4</MEAN_ELEMENT_THEORY></metadata><data><meanElements><EPOCH>2024-07-25T10:07:34.775328</EPOCH><MEAN_MOTION>14.34503821</MEAN_MOTION><ECCENTRICITY>.0005589</ECCENTRICITY><INCLINATION>45.0139</INCLINATION><RA_OF_ASC_NODE>202.4872</RA_OF_ASC_NODE><ARG_OF_PERICENTER>221.6937</ARG_OF_PERICENTER><MEAN_ANOMALY>138.3484</MEAN_ANOMALY></meanElements><tleParameters><EPHEMERIS_TYPE>0</EPHEMERIS_TYPE><CLASSIFICATION_TYPE>U</CLASSIFICATION_TYPE><NORAD_CAT_ID>25982</NORAD_CAT_ID><ELEMENT_SET_NO>999</ELEMENT_SET_NO><REV_AT_EPOCH>28777</REV_AT_EPOCH><BSTAR>.75129E-3</BSTAR><MEAN_MOTION_DOT>.1997E-4</MEAN_MOTION_DOT><MEAN_MOTION_DDOT>0</MEAN_MOTION_DDOT></tleParameters></data></segment></body></omm>

</ndm>
