ORBCOMM FM24            
1 25478U 98053D   24207.46251172  .00002400  00000+0  86662-3 0  9990
2 25478  45.0092  16.0058 0000471  95.3012 264.7890 14.35997974350721
ORBCOMM FM25            
1 25479U 98053E   24206.87327012  .00002979  00000+0  10642-2 0  9997
2 25479  45.0085  17.0401 0002910  59.7901 300.3234 14.35982710350651
ORBCOMM FM26            
1 25480U 98053F   24206.91021497  .00002136  00000+0  78614-3 0  9991
2 25480  45.0080  11.3155 0005207  78.4085 281.7347 14.35374980350699
ORBCOMM FM27            
1 25481U 98053G   24206.86202694  .00002711  00000+0  97312-3 0  9991
2 25481  45.0069  17.3541 0001406 186.7812 173.3017 14.35968623350626
ORBCOMM FM28            
1 25482U 98053H   24206.82626342  .00002323  00000+0  83402-3 0  9992
2 25482  45.0065 315.7470 0002903 128.2063 231.9046 14.36382842351258
ORBCOMM FM30            
1 25980U 99065A   24207.14341652  .00001862  00000+0  68999-3 0  9994
2 25980  45.0303 195.8187 0004855 189.4702 170.6055 14.35503566287956
ORBCOMM FM31            
1 25981U 99065B   24206.41325248  .00001910  00000+0  70678-3 0  9998
2 25981  45.0217 192.9056 0003239 230.0520 130.0044 14.35492350286876
ORBCOMM FM32            
1 25982U 99065C   24207.42193027  .00001997  00000+0  75129-3 0  9990
2 25982  45.0139 202.4872 0005589 221.6937 138.3484 14.34503821287775
